NORAD_CAT_ID,OBJECT_NAME,OBJECT_TYPE,EPOCH,MEAN_MOTION,ECCENTRICITY,INCLINATION,RA_OF_ASC_NODE,ARG_OF_PERICENTER,MEAN_ANOMALY,BSTAR,MEAN_MOTION_DOT,MEAN_MOTION_DDOT,TLE_LINE0,TLE_LINE1,TLE_LINE2,SEMIMAJOR_AXIS,PERIOD,APOGEE,PERIGEE,DECAYED
52669.0,STARLINK-3972,PAYLOAD,2022-08-01 22:00:00,15.08860732,0.0002011,53.2204,300.8468,38.0035,301.2664,-0.0020756,-0.00033189,0.0,0 STARLINK-3972,1 52669U 22053P   22213.91667824 -.00033189  00000-0 -20756-2 0  9991,2 52669  53.2204 300.8468 0002011  38.0035 301.2664 15.08860732  1304,6917.816999999999,95.436,541.073,538.2909999999998,0.0
52669.0,STARLINK-3972,PAYLOAD,2022-08-02 14:00:01,15.08832713,0.0002085,53.2206,297.8552,36.7882,325.6979,-0.00086909,-0.00014091,0.0,0 STARLINK-3972,1 52669U 22053P   22214.58334491 -.00014091  00000-0 -86909-3 0  9990,2 52669  53.2206 297.8552 0002085  36.7882 325.6979 15.08832713 12502,6917.903,95.438,541.21,538.325,0.0
52669.0,STARLINK-3972,PAYLOAD,2022-08-03 12:00:00,15.08836817,0.0002039,53.2204,293.7401,36.6668,267.673,-0.00065306,-0.00010666,0.0,0 STARLINK-3972,1 52669U 22053P   22215.50001157 -.00010666  00000-0 -65306-3 0  9995,2 52669  53.2204 293.7401 0002039  36.6668 267.6730 15.08836817 12642,6917.89,95.438,541.1659999999998,538.345,0.0
52669.0,STARLINK-3972,PAYLOAD,2022-08-03 14:00:01,15.08824376,0.0002072,53.2205,293.3664,36.197,1.0428,0.0011057,0.00017346,0.0,0 STARLINK-3972,1 52669U 22053P   22215.58334491  .00017346  00000-0  11057-2 0  9996,2 52669  53.2205 293.3664 0002072  36.1970   1.0428 15.08824376  1300,6917.928000000001,95.439,541.227,538.36,0.0
52669.0,STARLINK-3972,PAYLOAD,2022-08-03 22:00:01,15.08850355,0.0001945,53.2203,291.8687,37.2472,11.6406,-0.0015172,-0.0002435999999999,0.0,0 STARLINK-3972,1 52669U 22053P   22215.91668981 -.00024360  00000-0 -15172-2 0  9995,2 52669  53.2203 291.8687 0001945  37.2472  11.6406 15.08850355  1302,6917.849,95.437,541.059,538.368,0.0
52669.0,STARLINK-3972,PAYLOAD,2022-08-04 06:00:00,15.08848196,0.0001859,53.2204,290.3722,40.7371,19.679,0.0001365,1.885e-05,0.0,0 STARLINK-3972,1 52669U 22053P   22216.25001157  .00001885  00000-0  13650-3 0  9994,2 52669  53.2204 290.3722 0001859  40.7371  19.6790 15.08848196 12753,6917.855,95.437,541.006,538.434,0.0
52669.0,STARLINK-3972,PAYLOAD,2022-08-04 14:00:01,15.08832424,0.0002059,53.2202,288.8775,36.2496,35.7768,0.0015171,0.00023934,0.0,0 STARLINK-3972,1 52669U 22053P   22216.58334491  .00023934  00000-0  15171-2 0  9998,2 52669  53.2202 288.8775 0002059  36.2496  35.7768 15.08832424  1302,6917.904,95.438,541.193,538.344,0.0
52669.0,STARLINK-3972,PAYLOAD,2022-08-04 22:00:00,15.08863307,0.0001889,53.22,287.3798,36.9556,46.6664,-0.0040336,-0.00063955,0.0,0 STARLINK-3972,1 52669U 22053P   22216.91667824 -.00063955  00000-0 -40336-2 0  9994,2 52669  53.2200 287.3798 0001889  36.9556  46.6664 15.08863307  1303,6917.809,95.436,540.981,538.367,0.0
52669.0,STARLINK-3972,PAYLOAD,2022-08-05 04:00:00,15.08812874,0.0001776999999999,53.22,286.257,38.9036,323.4236,0.0019762,0.0003128,0.0,0 STARLINK-3972,1 52669U 22053P   22217.16667824  .00031280  00000-0  19762-2 0  9995,2 52669  53.2200 286.2570 0001777  38.9036 323.4236 15.08812874 12890,6917.9630000000025,95.439,541.058,538.599,0.0
52669.0,STARLINK-3972,PAYLOAD,2022-08-05 14:00:01,15.08810009,0.0002008,53.2199,284.3886,34.4623,72.4046,0.0019807,0.0003135,0.0,0 STARLINK-3972,1 52669U 22053P   22217.58335648  .00031350  00000-0  19807-2 0  9995,2 52669  53.2199 284.3886 0002008  34.4623  72.4046 15.08810009  1309,6917.972,95.439,541.226,538.448,0.0
52669.0,STARLINK-3972,PAYLOAD,2022-08-05 20:00:01,15.08847053,0.0001952,53.2195,283.2653,35.0203,350.5217,-0.0021061,-0.00033658,0.0,0 STARLINK-3972,1 52669U 22053P   22217.83335648 -.00033658  00000-0 -21061-2 0  9993,2 52669  53.2195 283.2653 0001952  35.0203 350.5217 15.08847053 12999,6917.859,95.437,541.0740000000002,538.373,0.0
52669.0,STARLINK-3972,PAYLOAD,2022-08-05 22:00:00,15.0883448,0.000187,53.2197,282.8909,36.6921,81.688,-0.00061279,-0.00010026,0.0,0 STARLINK-3972,1 52669U 22053P   22217.91667824 -.00010026  00000-0 -61279-3 0  9996,2 52669  53.2197 282.8909 0001870  36.6921  81.6880 15.08834480  1304,6917.897,95.438,541.056,538.469,0.0
52669.0,STARLINK-3972,PAYLOAD,2022-08-06 11:47:09,15.08838214,0.0002014,53.2204,280.3118,37.2878,322.8254,-1.371e-05,-5.06e-06,0.0,0 STARLINK-3972,1 52669U 22053P   22218.49108037 -.00000506  00000-0 -13710-4 0  9996,2 52669  53.2204 280.3118 0002014  37.2878 322.8254 15.08838214 13090,6917.886,95.438,541.144,538.3580000000002,0.0
52669.0,STARLINK-3972,PAYLOAD,2022-08-06 14:00:01,15.08815823,0.0002069,53.2196,279.8999,34.765,106.7954,0.0024817,0.00039404,0.0,0 STARLINK-3972,1 52669U 22053P   22218.58334491  .00039404  00000-0  24817-2 0  9996,2 52669  53.2196 279.8999 0002069  34.7650 106.7954 15.08815823  1308,6917.954000000002,95.439,541.251,538.388,0.0
52669.0,STARLINK-3972,PAYLOAD,2022-08-06 22:00:00,15.08840342,0.0001926,53.2195,278.4021,37.0896,116.0582,-0.00015061,-2.684e-05,0.0,0 STARLINK-3972,1 52669U 22053P   22218.91667824 -.00002684  00000-0 -15061-3 0  9996,2 52669  53.2195 278.4021 0001926  37.0896 116.0582 15.08840342  1302,6917.879,95.438,541.077,538.4119999999998,0.0
52669.0,STARLINK-3972,PAYLOAD,2022-08-07 11:37:55,15.08839444,0.0002021999999999,53.2206,275.8524,38.6004,321.5132,0.00010332,1.357e-05,0.0,0 STARLINK-3972,1 52669U 22053P   22219.48467585  .00001357  00000-0  10332-3 0  9991,2 52669  53.2206 275.8524 0002022  38.6004 321.5132 15.08839444 13241,6917.882,95.438,541.146,538.3480000000002,0.0
52669.0,STARLINK-3972,PAYLOAD,2022-08-07 12:00:00,15.08839238,0.0002145999999999,53.2195,275.785,36.5718,46.8721,0.0004647,7.115e-05,0.0,0 STARLINK-3972,1 52669U 22053P   22219.50001157  .00007115  00000-0  46470-3 0  9993,2 52669  53.2195 275.7850 0002146  36.5718  46.8721 15.08839238 13247,6917.8830000000025,95.438,541.232,538.263,0.0
52669.0,STARLINK-3972,PAYLOAD,2022-08-07 22:00:00,15.08844882,0.0001966,53.2196,273.9132,35.5098,152.4436,-0.0015743,-0.0002525999999999,0.0,0 STARLINK-3972,1 52669U 22053P   22219.91667824 -.00025260  00000-0 -15743-2 0  9998,2 52669  53.2196 273.9132 0001966  35.5098 152.4436 15.08844882  1302,6917.865,95.437,541.091,538.37,0.0
52669.0,STARLINK-3972,PAYLOAD,2022-08-08 14:00:01,15.08817437,0.0002218,53.2197,270.9223,33.0407,178.1669,0.0034802,0.00055502,0.0,0 STARLINK-3972,1 52669U 22053P   22220.58335648  .00055502  00000-0  34802-2 0  9996,2 52669  53.2197 270.9223 0002218  33.0407 178.1669 15.08817437 13402,6917.949000000001,95.439,541.349,538.28,0.0
52669.0,STARLINK-3972,PAYLOAD,2022-08-08 22:00:00,15.08853831,0.0002072,53.2198,269.4244,36.4519,186.2923,-0.00052479,-8.634e-05,0.0,0 STARLINK-3972,1 52669U 22053P   22220.91667824 -.00008634  00000-0 -52479-3 0  9994,2 52669  53.2198 269.4244 0002072  36.4519 186.2923 15.08853831  1305,6917.8380000000025,95.437,541.136,538.27,0.0
52669.0,STARLINK-3972,PAYLOAD,2022-08-09 04:00:00,15.08850353,0.0002117,53.2199,268.3021,40.4585,100.9864,-0.001276,-0.00020545,0.0,0 STARLINK-3972,1 52669U 22053P   22221.16667824 -.00020545  00000-0 -12760-2 0  9995,2 52669  53.2199 268.3021 0002117  40.4585 100.9864 15.08850353 13491,6917.849,95.437,541.178,538.249,0.0
52669.0,STARLINK-3972,PAYLOAD,2022-08-09 14:00:01,15.0882209,0.0002335999999999,53.2197,266.4338,35.6138,210.3269,0.00092423,0.00014445,0.0,0 STARLINK-3972,1 52669U 22053P   22221.58334491  .00014445  00000-0  92423-3 0  9997,2 52669  53.2197 266.4338 0002336  35.6138 210.3269 15.08822090  1301,6917.935,95.439,541.4159999999998,538.184,0.0
52669.0,STARLINK-3972,PAYLOAD,2022-08-09 22:00:00,15.08805222,0.0002119,53.2198,264.9358,36.9371,220.593,0.0011597,0.00018199,0.0,0 STARLINK-3972,1 52669U 22053P   22221.91667824  .00018199  00000-0  11597-2 0  9995,2 52669  53.2198 264.9358 0002119  36.9371 220.5930 15.08805222  1305,6917.986999999999,95.44,541.318,538.386,0.0
52669.0,STARLINK-3972,PAYLOAD,2022-08-10 14:00:01,15.08803586,0.0002340999999999,53.2194,261.9452,34.8524,245.813,0.0027239,0.00043287,0.0,0 STARLINK-3972,1 52669U 22053P   22222.58334491  .00043287  00000-0  27239-2 0  9996,2 52669  53.2194 261.9452 0002341  34.8524 245.8130 15.08803586 13707,6917.9919999999975,95.44,541.476,538.237,0.0
52669.0,STARLINK-3972,PAYLOAD,2022-08-10 22:00:00,15.08808522,0.0002143,53.2195,260.4472,38.4149,253.8265,0.0019579,0.00030983,0.0,0 STARLINK-3972,1 52669U 22053P   22222.91667824  .00030983  00000-0  19579-2 0  9999,2 52669  53.2195 260.4472 0002143  38.4149 253.8265 15.08808522  1303,6917.977,95.44,541.3240000000002,538.359,0.0
52669.0,STARLINK-3972,PAYLOAD,2022-08-11 04:00:00,15.08837347,0.0002153,53.2195,259.3253,40.7371,170.1737,-0.00042179,-6.994e-05,0.0,0 STARLINK-3972,1 52669U 22053P   22223.16667824 -.00006994  00000-0 -42179-3 0  9997,2 52669  53.2195 259.3253 0002153  40.7371 170.1737 15.08837347 13799,6917.888000000001,95.438,541.243,538.264,0.0
52669.0,STARLINK-3972,PAYLOAD,2022-08-11 14:00:01,15.08816654,0.0002349,53.2188,257.4564,35.7762,279.621,0.002066,0.00032725,0.0,0 STARLINK-3972,1 52669U 22053P   22223.58334491  .00032725  00000-0  20660-2 0  9993,2 52669  53.2188 257.4564 0002349  35.7762 279.6210 15.08816654  1303,6917.9519999999975,95.439,541.442,538.192,0.0
52669.0,STARLINK-3972,PAYLOAD,2022-08-12 14:00:01,15.08832794,0.0002358,53.2182,252.9674,37.1183,313.051,0.0016569,0.00026175,0.0,0 STARLINK-3972,1 52669U 22053P   22224.58334491  .00026175  00000-0  16569-2 0  9999,2 52669  53.2182 252.9674 0002358  37.1183 313.0510 15.08832794 14002,6917.901999999999,95.438,541.399,538.136,0.0
52669.0,STARLINK-3972,PAYLOAD,2022-08-12 22:00:01,15.08821561,0.0002157,53.2182,251.4693,42.0899,319.7468,0.0026937,0.00042822,0.0,0 STARLINK-3972,1 52669U 22053P   22224.91668981  .00042822  00000-0  26937-2 0  9997,2 52669  53.2182 251.4693 0002157  42.0899 319.7468 15.08821561  1307,6917.937,95.439,541.294,538.31,0.0
